STARLINK-34920          
1 65447U 25194P   26039.13114560  .00012405  00000+0  86235-3 0  9996
2 65447  97.6018 255.3128 0002527  77.5665 282.5845 15.05650933 25207
STARLINK-35030          
1 65448U 25194Q   26039.09512345  .00004856  00000+0  34045-3 0  9998
2 65448  97.6014 255.2101 0002020  78.9327 281.2127 15.05654722 25199
STARLINK-35009          
1 65449U 25194R   26039.25575820  .00012767  00000+0  88747-3 0  9992
2 65449  97.6034 255.4592 0002490  76.4576 283.6928 15.05645992 25226
STARLINK-34970          
1 65450U 25194S   26039.18372956  .00004870  00000+0  34155-3 0  9991
2 65450  97.6030 255.2475 0002321  89.4882 270.6611 15.05645547 25208
STARLINK-35039          
1 65451U 25194T   26039.08683432  .00010278  00000+0  71551-3 0  9995
2 65451  97.6017 255.2202 0001722  76.8088 283.3331 15.05649751 25193
STARLINK-35084          
1 65452U 25194U   26039.30002630  .00003560  00000+0  25083-3 0  9991
2 65452  97.6048 255.4012 0002893 113.9336 246.2194 15.05645793 25229
STARLINK-34988          
1 65453U 25194V   26039.08665990  .00008196  00000+0  64192-3 0  9995
2 65453  97.6036 256.5127 0002229  87.1657 272.9823 15.01256570 25274
STARLINK-35059          
1 65454U 25194W   26039.08771663  .00010488  00000+0  83712-3 0  9997
2 65454  97.6049 256.0362 0002085 352.6966   7.4227 15.00463206 25249
STARLINK-34728          
1 65455U 25194X   26039.17819311  .00002022  00000+0  14428-3 0  9994
2 65455  97.6028 255.2544 0002307  80.4622 279.6866 15.05649915 25208
STARLINK-35005          
1 65456U 25194Y   26039.19203564 -.00001862  00000+0 -12484-3 0  9997
2 65456  97.6036 255.3846 0003042  72.8106 287.3454 15.05659576 25217
STARLINK-35076          
1 65457U 25194Z   26039.10620511  .00006097  00000+0  42653-3 0  9998
2 65457  97.6025 255.1961 0001890  88.3822 271.7621 15.05640479 25190
STARLINK-34784          
1 65458U 25195A   26039.27803350  .00013899  00000+0  48056-3 0  9993
2 65458  53.1596  34.5876 0001394  78.1200 281.9957 15.30198069 25490
STARLINK-34867          
1 65459U 25195B   26039.23276946  .00026644  00000+0  90784-3 0  9992
2 65459  53.1621  35.0124 0001349  91.1864 268.9291 15.30223280 25482
STARLINK-34850          
1 65460U 25195C   26039.25704013  .00030754  00000+0  10459-2 0  9994
2 65460  53.1608  35.1596 0001705  71.5716 288.5470 15.30207846 25484
STARLINK-35159          
1 65461U 25195D   26039.25176692  .00013800  00000+0  47752-3 0  9991
2 65461  53.1605  35.1286 0000574  64.2744 295.8316 15.30177092 25480
STARLINK-35180          
1 65462U 25195E   26039.24226572  .00009833  00000+0  34390-3 0  9999
2 65462  53.1600  35.0748 0001905  49.1550 310.9616 15.30179794 25487
