[{"OBJECT_NAME":"STARLINK-34920","OBJECT_ID":"2025-194P","EPOCH":"2026-02-08T03:08:50.979840","MEAN_MOTION":15.05650933,"ECCENTRICITY":0.00025278,"INCLINATION":97.6018,"RA_OF_ASC_NODE":255.3128,"ARG_OF_PERICENTER":77.5665,"MEAN_ANOMALY":282.5845,"EPHEMERIS_TYPE":0,"CLASSIFICATION_TYPE":"U","NORAD_CAT_ID":65447,"ELEMENT_SET_NO":999,"REV_AT_EPOCH":2520,"BSTAR":0.00086235306,"MEAN_MOTION_DOT":0.00012405,"MEAN_MOTION_DDOT":0},{"OBJECT_NAME":"STARLINK-35030","OBJECT_ID":"2025-194Q","EPOCH":"2026-02-08T02:16:58.666080","MEAN_MOTION":15.05654722,"ECCENTRICITY":0.00020205,"INCLINATION":97.6014,"RA_OF_ASC_NODE":255.2101,"ARG_OF_PERICENTER":78.9327,"MEAN_ANOMALY":281.2127,"EPHEMERIS_TYPE":0,"CLASSIFICATION_TYPE":"U","NORAD_CAT_ID":65448,"ELEMENT_SET_NO":999,"REV_AT_EPOCH":2519,"BSTAR":0.00034044928,"MEAN_MOTION_DOT":4.856e-5,"MEAN_MOTION_DDOT":0},{"OBJECT_NAME":"STARLINK-35009","OBJECT_ID":"2025-194R","EPOCH":"2026-02-08T06:08:17.508480","MEAN_MOTION":15.05645992,"ECCENTRICITY":0.00024907,"INCLINATION":97.6034,"RA_OF_ASC_NODE":255.4592,"ARG_OF_PERICENTER":76.4576,"MEAN_ANOMALY":283.6928,"EPHEMERIS_TYPE":0,"CLASSIFICATION_TYPE":"U","NORAD_CAT_ID":65449,"ELEMENT_SET_NO":999,"REV_AT_EPOCH":2522,"BSTAR":0.00088747498,"MEAN_MOTION_DOT":0.00012767,"MEAN_MOTION_DDOT":0},{"OBJECT_NAME":"STARLINK-34970","OBJECT_ID":"2025-194S","EPOCH":"2026-02-08T04:24:34.233984","MEAN_MOTION":15.05645547,"ECCENTRICITY":0.00023218,"INCLINATION":97.603,"RA_OF_ASC_NODE":255.2475,"ARG_OF_PERICENTER":89.4882,"MEAN_ANOMALY":270.6611,"EPHEMERIS_TYPE":0,"CLASSIFICATION_TYPE":"U","NORAD_CAT_ID":65450,"ELEMENT_SET_NO":999,"REV_AT_EPOCH":2520,"BSTAR":0.00034155462,"MEAN_MOTION_DOT":4.87e-5,"MEAN_MOTION_DDOT":0},{"OBJECT_NAME":"STARLINK-35039","OBJECT_ID":"2025-194T","EPOCH":"2026-02-08T02:05:02.485248","MEAN_MOTION":15.05649751,"ECCENTRICITY":0.00017228,"INCLINATION":97.6017,"RA_OF_ASC_NODE":255.2202,"ARG_OF_PERICENTER":76.8088,"MEAN_ANOMALY":283.3331,"EPHEMERIS_TYPE":0,"CLASSIFICATION_TYPE":"U","NORAD_CAT_ID":65451,"ELEMENT_SET_NO":999,"REV_AT_EPOCH":2519,"BSTAR":0.00071550639,"MEAN_MOTION_DOT":0.00010278,"MEAN_MOTION_DDOT":0},{"OBJECT_NAME":"STARLINK-35084","OBJECT_ID":"2025-194U","EPOCH":"2026-02-08T07:12:02.272320","MEAN_MOTION":15.05645793,"ECCENTRICITY":0.0002893,"INCLINATION":97.6048,"RA_OF_ASC_NODE":255.4012,"ARG_OF_PERICENTER":113.9336,"MEAN_ANOMALY":246.2194,"EPHEMERIS_TYPE":0,"CLASSIFICATION_TYPE":"U","NORAD_CAT_ID":65452,"ELEMENT_SET_NO":999,"REV_AT_EPOCH":2522,"BSTAR":0.00025082809,"MEAN_MOTION_DOT":3.56e-5,"MEAN_MOTION_DDOT":0},{"OBJECT_NAME":"STARLINK-34988","OBJECT_ID":"2025-194V","EPOCH":"2026-02-08T02:04:47.415360","MEAN_MOTION":15.0125657,"ECCENTRICITY":0.00022299,"INCLINATION":97.6036,"RA_OF_ASC_NODE":256.5127,"ARG_OF_PERICENTER":87.1657,"MEAN_ANOMALY":272.9823,"EPHEMERIS_TYPE":0,"CLASSIFICATION_TYPE":"U","NORAD_CAT_ID":65453,"ELEMENT_SET_NO":999,"REV_AT_EPOCH":2527,"BSTAR":0.00064191568,"MEAN_MOTION_DOT":8.196e-5,"MEAN_MOTION_DDOT":0},{"OBJECT_NAME":"STARLINK-35059","OBJECT_ID":"2025-194W","EPOCH":"2026-02-08T02:06:18.716832","MEAN_MOTION":15.00463206,"ECCENTRICITY":0.00020858,"INCLINATION":97.6049,"RA_OF_ASC_NODE":256.0362,"ARG_OF_PERICENTER":352.6966,"MEAN_ANOMALY":7.4227,"EPHEMERIS_TYPE":0,"CLASSIFICATION_TYPE":"U","NORAD_CAT_ID":65454,"ELEMENT_SET_NO":999,"REV_AT_EPOCH":2524,"BSTAR":0.00083712381,"MEAN_MOTION_DOT":0.00010488,"MEAN_MOTION_DDOT":0},{"OBJECT_NAME":"STARLINK-34728","OBJECT_ID":"2025-194X","EPOCH":"2026-02-08T04:16:35.884704","MEAN_MOTION":15.05649915,"ECCENTRICITY":0.00023074,"INCLINATION":97.6028,"RA_OF_ASC_NODE":255.2544,"ARG_OF_PERICENTER":80.4622,"MEAN_ANOMALY":279.6866,"EPHEMERIS_TYPE":0,"CLASSIFICATION_TYPE":"U","NORAD_CAT_ID":65455,"ELEMENT_SET_NO":999,"REV_AT_EPOCH":2520,"BSTAR":0.00014427513,"MEAN_MOTION_DOT":2.022e-5,"MEAN_MOTION_DDOT":0},{"OBJECT_NAME":"STARLINK-35005","OBJECT_ID":"2025-194Y","EPOCH":"2026-02-08T04:36:31.879296","MEAN_MOTION":15.05659576,"ECCENTRICITY":0.00030429,"INCLINATION":97.6036,"RA_OF_ASC_NODE":255.3846,"ARG_OF_PERICENTER":72.8106,"MEAN_ANOMALY":287.3454,"EPHEMERIS_TYPE":0,"CLASSIFICATION_TYPE":"U","NORAD_CAT_ID":65456,"ELEMENT_SET_NO":999,"REV_AT_EPOCH":2521,"BSTAR":-0.00012484212,"MEAN_MOTION_DOT":-1.862e-5,"MEAN_MOTION_DDOT":0},{"OBJECT_NAME":"STARLINK-35076","OBJECT_ID":"2025-194Z","EPOCH":"2026-02-08T02:32:56.121504","MEAN_MOTION":15.05640479,"ECCENTRICITY":0.00018901,"INCLINATION":97.6025,"RA_OF_ASC_NODE":255.1961,"ARG_OF_PERICENTER":88.3822,"MEAN_ANOMALY":271.7621,"EPHEMERIS_TYPE":0,"CLASSIFICATION_TYPE":"U","NORAD_CAT_ID":65457,"ELEMENT_SET_NO":999,"REV_AT_EPOCH":2519,"BSTAR":0.00042652771,"MEAN_MOTION_DOT":6.097e-5,"MEAN_MOTION_DDOT":0},{"OBJECT_NAME":"STARLINK-34784","OBJECT_ID":"2025-195A","EPOCH":"2026-02-08T06:40:22.094400","MEAN_MOTION":15.30198069,"ECCENTRICITY":0.00013947,"INCLINATION":53.1596,"RA_OF_ASC_NODE":34.5876,"ARG_OF_PERICENTER":78.12,"MEAN_ANOMALY":281.9957,"EPHEMERIS_TYPE":0,"CLASSIFICATION_TYPE":"U","NORAD_CAT_ID":65458,"ELEMENT_SET_NO":999,"REV_AT_EPOCH":2549,"BSTAR":0.00048055502,"MEAN_MOTION_DOT":0.00013899,"MEAN_MOTION_DDOT":0},{"OBJECT_NAME":"STARLINK-34867","OBJECT_ID":"2025-195B","EPOCH":"2026-02-08T05:35:11.281344","MEAN_MOTION":15.3022328,"ECCENTRICITY":0.00013498,"INCLINATION":53.1621,"RA_OF_ASC_NODE":35.0124,"ARG_OF_PERICENTER":91.1864,"MEAN_ANOMALY":268.9291,"EPHEMERIS_TYPE":0,"CLASSIFICATION_TYPE":"U","NORAD_CAT_ID":65459,"ELEMENT_SET_NO":999,"REV_AT_EPOCH":2548,"BSTAR":0.0009078381,"MEAN_MOTION_DOT":0.00026644,"MEAN_MOTION_DDOT":0},{"OBJECT_NAME":"STARLINK-34850","OBJECT_ID":"2025-195C","EPOCH":"2026-02-08T06:10:08.267232","MEAN_MOTION":15.30207846,"ECCENTRICITY":0.0001705,"INCLINATION":53.1608,"RA_OF_ASC_NODE":35.1596,"ARG_OF_PERICENTER":71.5716,"MEAN_ANOMALY":288.547,"EPHEMERIS_TYPE":0,"CLASSIFICATION_TYPE":"U","NORAD_CAT_ID":65460,"ELEMENT_SET_NO":999,"REV_AT_EPOCH":2548,"BSTAR":0.001045915,"MEAN_MOTION_DOT":0.00030754,"MEAN_MOTION_DDOT":0},{"OBJECT_NAME":"STARLINK-35159","OBJECT_ID":"2025-195D","EPOCH":"2026-02-08T06:02:32.661888","MEAN_MOTION":15.30177092,"ECCENTRICITY":5.743e-5,"INCLINATION":53.1605,"RA_OF_ASC_NODE":35.1286,"ARG_OF_PERICENTER":64.2744,"MEAN_ANOMALY":295.8316,"EPHEMERIS_TYPE":0,"CLASSIFICATION_TYPE":"U","NORAD_CAT_ID":65461,"ELEMENT_SET_NO":999,"REV_AT_EPOCH":2548,"BSTAR":0.00047752183,"MEAN_MOTION_DOT":0.000138,"MEAN_MOTION_DDOT":0},{"OBJECT_NAME":"STARLINK-35180","OBJECT_ID":"2025-195E","EPOCH":"2026-02-08T05:48:51.758208","MEAN_MOTION":15.30179794,"ECCENTRICITY":0.00019054,"INCLINATION":53.16,"RA_OF_ASC_NODE":35.0748,"ARG_OF_PERICENTER":49.155,"MEAN_ANOMALY":310.9616,"EPHEMERIS_TYPE":0,"CLASSIFICATION_TYPE":"U","NORAD_CAT_ID":65462,"ELEMENT_SET_NO":999,"REV_AT_EPOCH":2548,"BSTAR":0.00034390369,"MEAN_MOTION_DOT":9.833e-5,"MEAN_MOTION_DDOT":0}]
